STARLINK-3153
1 19431C 21104Z   21326.14741052 -.00862735  00000-0 -31994-2 0  3262
2 19431  53.2176  90.8232 0024827  64.9383 236.7701 15.87699208    19
